[{"OBJECT_NAME":"SBSS (USA 216)","OBJECT_ID":"2010-048A","EPOCH":"2026-03-09T21:16:11.917056","MEAN_MOTION":15.1572421,"ECCENTRICITY":0.0082264,"INCLINATION":97.7474,"RA_OF_ASC_NODE":312.3885,"ARG_OF_PERICENTER":184.8326,"MEAN_ANOMALY":306.5835,"EPHEMERIS_TYPE":0,"CLASSIFICATION_TYPE":"U","NORAD_CAT_ID":37168,"ELEMENT_SET_NO":999,"REV_AT_EPOCH":83742,"BSTAR":0.00024191,"MEAN_MOTION_DOT":4.946e-5,"MEAN_MOTION_DDOT":0},{"OBJECT_NAME":"STARLINK-31180","OBJECT_ID":"2024-005E","EPOCH":"2026-03-09T21:07:43.552416","MEAN_MOTION":15.26747824,"ECCENTRICITY":0.00016342,"INCLINATION":43.0014,"RA_OF_ASC_NODE":218.6106,"ARG_OF_PERICENTER":269.2542,"MEAN_ANOMALY":90.8123,"EPHEMERIS_TYPE":0,"CLASSIFICATION_TYPE":"U","NORAD_CAT_ID":58732,"ELEMENT_SET_NO":999,"REV_AT_EPOCH":12046,"BSTAR":0.00057457477,"MEAN_MOTION_DOT":0.00015188,"MEAN_MOTION_DDOT":0}]
